[{"OBJECT_NAME":"CUBESX-HSE 3 (RS42S)","OBJECT_ID":"2023-091N","EPOCH":"2026-03-09T22:57:25.321248","MEAN_MOTION":15.286147,"ECCENTRICITY":0.00127191,"INCLINATION":97.5203,"RA_OF_ASC_NODE":133.4295,"ARG_OF_PERICENTER":86.5376,"MEAN_ANOMALY":273.7318,"EPHEMERIS_TYPE":0,"CLASSIFICATION_TYPE":"U","NORAD_CAT_ID":57178,"ELEMENT_SET_NO":999,"REV_AT_EPOCH":14925,"BSTAR":0.00059055694,"MEAN_MOTION_DOT":0.00016417,"MEAN_MOTION_DDOT":0},{"OBJECT_NAME":"STARLINK-34513","OBJECT_ID":"2025-137R","EPOCH":"2026-03-09T03:38:19.039200","MEAN_MOTION":15.30208257,"ECCENTRICITY":0.00011775,"INCLINATION":53.1597,"RA_OF_ASC_NODE":337.6617,"ARG_OF_PERICENTER":4.5952,"MEAN_ANOMALY":355.5059,"EPHEMERIS_TYPE":0,"CLASSIFICATION_TYPE":"U","NORAD_CAT_ID":64609,"ELEMENT_SET_NO":999,"REV_AT_EPOCH":4074,"BSTAR":0.0012972677,"MEAN_MOTION_DOT":0.0003827,"MEAN_MOTION_DDOT":0}]
